[{"OBJECT_NAME":"STARLINK-6113","OBJECT_ID":"2023-046W","EPOCH":"2026-03-09T22:26:20.343552","MEAN_MOTION":15.02535048,"ECCENTRICITY":0.00014204,"INCLINATION":43.0033,"RA_OF_ASC_NODE":157.2072,"ARG_OF_PERICENTER":260.7518,"MEAN_ANOMALY":99.3164,"EPHEMERIS_TYPE":0,"CLASSIFICATION_TYPE":"U","NORAD_CAT_ID":56113,"ELEMENT_SET_NO":999,"REV_AT_EPOCH":16210,"BSTAR":7.014319e-6,"MEAN_MOTION_DOT":-1.09e-6,"MEAN_MOTION_DDOT":0},{"OBJECT_NAME":"PEGASUS DEB","OBJECT_ID":"1994-029AEQ","EPOCH":"2026-03-09T08:40:11.508384","MEAN_MOTION":14.70940867,"ECCENTRICITY":0.01619331,"INCLINATION":81.9633,"RA_OF_ASC_NODE":47.0468,"ARG_OF_PERICENTER":351.1383,"MEAN_ANOMALY":8.6969,"EPHEMERIS_TYPE":0,"CLASSIFICATION_TYPE":"U","NORAD_CAT_ID":29033,"ELEMENT_SET_NO":999,"REV_AT_EPOCH":21443,"BSTAR":0.0030025525,"MEAN_MOTION_DOT":0.00022643,"MEAN_MOTION_DDOT":0}]
